{
    "links": {
        "self": "http://www.neowsapp.com/rest/v1/neo/3273972?api_key=iIulBulltgU6a56xZRHN4H3l9WmuAYTsLGpBGhQ2"
    },
    "id": "3273972",
    "neo_reference_id": "3273972",
    "name": "(2005 EV95)",
    "designation": "2005 EV95",
    "nasa_jpl_url": "http://ssd.jpl.nasa.gov/sbdb.cgi?sstr=3273972",
    "absolute_magnitude_h": 22.112,
    "estimated_diameter": {
        "kilometers": {
            "estimated_diameter_min": 0.1004974348,
            "estimated_diameter_max": 0.2247190958
        },
        "meters": {
            "estimated_diameter_min": 100.4974348204,
            "estimated_diameter_max": 224.7190958228
        },
        "miles": {
            "estimated_diameter_min": 0.0624461916,
            "estimated_diameter_max": 0.1396339293
        },
        "feet": {
            "estimated_diameter_min": 329.7160040562,
            "estimated_diameter_max": 737.2673983393
        }
    },
    "is_potentially_hazardous_asteroid": false,
    "close_approach_data": [
        {
            "close_approach_date": "2005-03-17",
            "close_approach_date_full": "2005-Mar-17 21:24",
            "epoch_date_close_approach": 1111094640000,
            "relative_velocity": {
                "kilometers_per_second": "23.0676010547",
                "kilometers_per_hour": "83043.3637969121",
                "miles_per_hour": "51599.9167992535"
            },
            "miss_distance": {
                "astronomical": "0.1371193112",
                "lunar": "53.3394120568",
                "kilometers": "20512756.891387144",
                "miles": "12746036.0907608272"
            },
            "orbiting_body": "Earth"
        }
    ],
    "orbital_data": {
        "orbit_id": "7",
        "orbit_determination_date": "2017-04-06 09:11:17",
        "first_observation_date": "2005-03-10",
        "last_observation_date": "2005-03-12",
        "data_arc_in_days": 2,
        "observations_used": 15,
        "orbit_uncertainty": "9",
        "minimum_orbit_intersection": ".0908005",
        "jupiter_tisserand_invariant": "4.009",
        "epoch_osculation": "2453440.5",
        "eccentricity": ".4635540496503722",
        "semi_major_axis": "1.633594768088835",
        "inclination": "33.91285570043841",
        "ascending_node_longitude": "176.6812230644512",
        "orbital_period": "762.6318302307008",
        "perihelion_distance": ".876335297853595",
        "perihelion_argument": "69.9176630615766",
        "aphelion_distance": "2.390854238324076",
        "perihelion_time": "2452733.848362689696",
        "mean_anomaly": "333.5745760241262",
        "mean_motion": ".4720495339030077",
        "equinox": "J2000",
        "orbit_class": {
            "orbit_class_type": "APO",
            "orbit_class_description": "Near-Earth asteroid orbits which cross the Earth’s orbit similar to that of 1862 Apollo",
            "orbit_class_range": "a (semi-major axis) > 1.0 AU; q (perihelion) < 1.017 AU"
        }
    },
    "is_sentry_object": false
}